[
    {
        "Altitude(m)": 611967.2101192358,
        "Argument of Periapsis(deg)": 0.0,
        "Eccentricity": 0.0,
        "Inclination(deg)": 60.0,
        "Latitude(deg)": 59.14025611237446,
        "Longitude(deg)": 116.09212752062069,
        "Mean Anomaly(deg)": 98.18179999999998,
        "RAAN(deg)": 110.00000000000001,
        "Satellite Name": "Test1 490",
        "Satellite Number": 490,
        "Semi-Major Axis(m)": 6980739.136638005,
        "Time(s)": 0
    },
    {
        "Altitude(m)": 611934.409793872,
        "Argument of Periapsis(deg)": 0.00010418945913296404,
        "Eccentricity": 0.0,
        "Inclination(deg)": 60.0,
        "Latitude(deg)": 58.98661746082415,
        "Longitude(deg)": 117.21537588823358,
        "Mean Anomaly(deg)": 98.80190614546181,
        "RAAN(deg)": 109.99957995086025,
        "Satellite Name": "Test1 490",
        "Satellite Number": 490,
        "Semi-Major Axis(m)": 6980739.136638005,
        "Time(s)": 10
    }
]